{"fetched_at":"2026-07-17T06:38:25.171Z","source":"https://celestrak.org/NORAD/elements/gp.php?NAME=LEGION&FORMAT=JSON","constellation":"maxar-legion","records":[{"OBJECT_NAME":"LEGION 1","OBJECT_ID":"2024-081A","EPOCH":"2026-07-16T18:46:32.543904","CLASSIFICATION_TYPE":"U","MEAN_MOTION":15.16849798,"ECCENTRICITY":0.0007737,"INCLINATION":97.5011,"RA_OF_ASC_NODE":275.3255,"ARG_OF_PERICENTER":263.0786,"MEAN_ANOMALY":96.9567,"EPHEMERIS_TYPE":0,"NORAD_CAT_ID":59625,"ELEMENT_SET_NO":999,"REV_AT_EPOCH":12202,"BSTAR":0.000096611,"MEAN_MOTION_DOT":0.00001834,"MEAN_MOTION_DDOT":0},{"OBJECT_NAME":"LEGION 2","OBJECT_ID":"2024-081B","EPOCH":"2026-07-16T19:30:19.880640","CLASSIFICATION_TYPE":"U","MEAN_MOTION":15.1682901,"ECCENTRICITY":0.0010326,"INCLINATION":97.5011,"RA_OF_ASC_NODE":275.4523,"ARG_OF_PERICENTER":227.3079,"MEAN_ANOMALY":132.7285,"EPHEMERIS_TYPE":0,"NORAD_CAT_ID":59626,"ELEMENT_SET_NO":999,"REV_AT_EPOCH":12203,"BSTAR":0.000099095,"MEAN_MOTION_DOT":0.00001883,"MEAN_MOTION_DDOT":0},{"OBJECT_NAME":"LEGION 3","OBJECT_ID":"2024-146A","EPOCH":"2026-07-16T14:07:54.480000","CLASSIFICATION_TYPE":"U","MEAN_MOTION":15.15659955,"ECCENTRICITY":0.000808,"INCLINATION":45.0017,"RA_OF_ASC_NODE":232.9186,"ARG_OF_PERICENTER":341.6257,"MEAN_ANOMALY":18.4328,"EPHEMERIS_TYPE":0,"NORAD_CAT_ID":60452,"ELEMENT_SET_NO":999,"REV_AT_EPOCH":10648,"BSTAR":0.000080998,"MEAN_MOTION_DOT":0.00001303,"MEAN_MOTION_DDOT":0},{"OBJECT_NAME":"LEGION 4","OBJECT_ID":"2024-146B","EPOCH":"2026-07-16T18:52:13.609632","CLASSIFICATION_TYPE":"U","MEAN_MOTION":15.15687862,"ECCENTRICITY":0.0009015,"INCLINATION":45.0028,"RA_OF_ASC_NODE":323.7279,"ARG_OF_PERICENTER":123.5936,"MEAN_ANOMALY":236.5804,"EPHEMERIS_TYPE":0,"NORAD_CAT_ID":60453,"ELEMENT_SET_NO":999,"REV_AT_EPOCH":10536,"BSTAR":0.000098329,"MEAN_MOTION_DOT":0.0000164,"MEAN_MOTION_DDOT":0},{"OBJECT_NAME":"LEGION 5","OBJECT_ID":"2025-025A","EPOCH":"2026-07-16T07:47:55.815648","CLASSIFICATION_TYPE":"U","MEAN_MOTION":15.15700804,"ECCENTRICITY":0.0007998,"INCLINATION":45.0015,"RA_OF_ASC_NODE":145.1594,"ARG_OF_PERICENTER":296.2108,"MEAN_ANOMALY":63.7948,"EPHEMERIS_TYPE":0,"NORAD_CAT_ID":62900,"ELEMENT_SET_NO":999,"REV_AT_EPOCH":7891,"BSTAR":0.00005769,"MEAN_MOTION_DOT":0.00000853,"MEAN_MOTION_DDOT":0},{"OBJECT_NAME":"LEGION 6","OBJECT_ID":"2025-025B","EPOCH":"2026-07-16T18:51:02.379744","CLASSIFICATION_TYPE":"U","MEAN_MOTION":15.1569377,"ECCENTRICITY":0.0010781,"INCLINATION":45.0015,"RA_OF_ASC_NODE":51.8378,"ARG_OF_PERICENTER":284.6352,"MEAN_ANOMALY":75.3331,"EPHEMERIS_TYPE":0,"NORAD_CAT_ID":62901,"ELEMENT_SET_NO":999,"REV_AT_EPOCH":8012,"BSTAR":0.00010695,"MEAN_MOTION_DOT":0.00001808,"MEAN_MOTION_DDOT":0}]}
